{
  "type": "FeatureCollection",
  "features": [
    {
      "type": "Feature",
      "properties": {
        "norad_id": 66697,
        "name": "IRIDE FM3",
        "group": "last-30-days",
        "lat": -74.48627458958357,
        "lon": 99.33885110673576,
        "alt_km": 519.3015926523431,
        "timestamp": "2025-12-25T16:53:13.371534+00:00",
        "meta_object_name": "IRIDE FM3",
        "meta_object_id": "2025-276AH",
        "meta_epoch": "2025-12-25T06:09:01.175040",
        "meta_mean_motion": 15.18209792,
        "meta_eccentricity": 0.00014548,
        "meta_inclination": 97.4384,
        "meta_ra_of_asc_node": 70.8212,
        "meta_arg_of_pericenter": 147.3097,
        "meta_mean_anomaly": 212.8227,
        "meta_ephemeris_type": 0,
        "meta_classification_type": "U",
        "meta_norad_cat_id": 66697,
        "meta_element_set_no": 999,
        "meta_rev_at_epoch": 402,
        "meta_bstar": 0.00052914734,
        "meta_mean_motion_dot": 0.00010764,
        "meta_mean_motion_ddot": 0,
        "tle_line1": "1 66697U 25276AH  25359.25626360  .00010764  00000+0  52915-3 0  9992",
        "tle_line2": "2 66697  97.4384  70.8212 0001454 147.3097 212.8227 15.18209792  4020"
      },
      "geometry": {
        "type": "Point",
        "coordinates": [
          99.33885110673576,
          -74.48627458958357
        ]
      }
    },
    {
      "type": "Feature",
      "properties": {
        "norad_id": 66698,
        "name": "IRIDE FM4",
        "group": "last-30-days",
        "lat": -25.674614405029942,
        "lon": -112.37309366127951,
        "alt_km": 517.9641793465353,
        "timestamp": "2025-12-25T16:53:13.371544+00:00",
        "meta_object_name": "IRIDE FM4",
        "meta_object_id": "2025-276AJ",
        "meta_epoch": "2025-12-25T04:54:14.132736",
        "meta_mean_motion": 15.17379603,
        "meta_eccentricity": 0.00026876,
        "meta_inclination": 97.4388,
        "meta_ra_of_asc_node": 70.7377,
        "meta_arg_of_pericenter": 243.9275,
        "meta_mean_anomaly": 116.1682,
        "meta_ephemeris_type": 0,
        "meta_classification_type": "U",
        "meta_norad_cat_id": 66698,
        "meta_element_set_no": 999,
        "meta_rev_at_epoch": 401,
        "meta_bstar": 0.00060812325,
        "meta_mean_motion_dot": 0.00012092,
        "meta_mean_motion_ddot": 0,
        "tle_line1": "1 66698U 25276AJ  25359.20433024  .00012092  00000+0  60812-3 0  9992",
        "tle_line2": "2 66698  97.4388  70.7377 0002687 243.9275 116.1682 15.17379603  4014"
      },
      "geometry": {
        "type": "Point",
        "coordinates": [
          -112.37309366127951,
          -25.674614405029942
        ]
      }
    },
    {
      "type": "Feature",
      "properties": {
        "norad_id": 66699,
        "name": "IRIDE FM5",
        "group": "last-30-days",
        "lat": -27.86366123988699,
        "lon": -112.72693613253715,
        "alt_km": 515.1887984397526,
        "timestamp": "2025-12-25T16:53:13.371556+00:00",
        "meta_object_name": "IRIDE FM5",
        "meta_object_id": "2025-276AK",
        "meta_epoch": "2025-12-25T06:28:44.165568",
        "meta_mean_motion": 15.17617454,
        "meta_eccentricity": 0.00049324,
        "meta_inclination": 97.4401,
        "meta_ra_of_asc_node": 70.8084,
        "meta_arg_of_pericenter": 206.6371,
        "meta_mean_anomaly": 153.461,
        "meta_ephemeris_type": 0,
        "meta_classification_type": "U",
        "meta_norad_cat_id": 66699,
        "meta_element_set_no": 999,
        "meta_rev_at_epoch": 402,
        "meta_bstar": 0.0063134755,
        "meta_mean_motion_dot": 0.00129091,
        "meta_mean_motion_ddot": 0,
        "tle_line1": "1 66699U 25276AK  25359.26995562  .00129091  00000+0  63135-2 0  9997",
        "tle_line2": "2 66699  97.4401  70.8084 0004932 206.6371 153.4610 15.17617454  4020"
      },
      "geometry": {
        "type": "Point",
        "coordinates": [
          -112.72693613253715,
          -27.86366123988699
        ]
      }
    },
    {
      "type": "Feature",
      "properties": {
        "norad_id": 66700,
        "name": "IRIDE FM6",
        "group": "last-30-days",
        "lat": -70.82528363090739,
        "lon": 93.35143797842599,
        "alt_km": 521.8534493076004,
        "timestamp": "2025-12-25T16:53:13.371566+00:00",
        "meta_object_name": "IRIDE FM6",
        "meta_object_id": "2025-276AL",
        "meta_epoch": "2025-12-25T06:07:58.267200",
        "meta_mean_motion": 15.18244466,
        "meta_eccentricity": 0.00068866,
        "meta_inclination": 97.4413,
        "meta_ra_of_asc_node": 70.8334,
        "meta_arg_of_pericenter": 154.6039,
        "meta_mean_anomaly": 205.5535,
        "meta_ephemeris_type": 0,
        "meta_classification_type": "U",
        "meta_norad_cat_id": 66700,
        "meta_element_set_no": 999,
        "meta_rev_at_epoch": 402,
        "meta_bstar": -0.001061626,
        "meta_mean_motion_dot": -0.00021735,
        "meta_mean_motion_ddot": 0,
        "tle_line1": "1 66700U 25276AL  25359.25553550 -.00021735  00000+0 -10616-2 0  9990",
        "tle_line2": "2 66700  97.4413  70.8334 0006886 154.6039 205.5535 15.18244466  4022"
      },
      "geometry": {
        "type": "Point",
        "coordinates": [
          93.35143797842599,
          -70.82528363090739
        ]
      }
    },
    {
      "type": "Feature",
      "properties": {
        "norad_id": 66701,
        "name": "IRIDE FM7",
        "group": "last-30-days",
        "lat": -27.171211558760014,
        "lon": -112.60619807631439,
        "alt_km": 517.7164576411715,
        "timestamp": "2025-12-25T16:53:13.371576+00:00",
        "meta_object_name": "IRIDE FM7",
        "meta_object_id": "2025-276AM",
        "meta_epoch": "2025-12-25T04:53:51.507168",
        "meta_mean_motion": 15.17429084,
        "meta_eccentricity": 0.00030017,
        "meta_inclination": 97.4415,
        "meta_ra_of_asc_node": 70.7499,
        "meta_arg_of_pericenter": 243.9201,
        "meta_mean_anomaly": 116.1723,
        "meta_ephemeris_type": 0,
        "meta_classification_type": "U",
        "meta_norad_cat_id": 66701,
        "meta_element_set_no": 999,
        "meta_rev_at_epoch": 401,
        "meta_bstar": 0.00061174205,
        "meta_mean_motion_dot": 0.00012182,
        "meta_mean_motion_ddot": 0,
        "tle_line1": "1 66701U 25276AM  25359.20406837  .00012182  00000+0  61174-3 0  9991",
        "tle_line2": "2 66701  97.4415  70.7499 0003001 243.9201 116.1723 15.17429084  4010"
      },
      "geometry": {
        "type": "Point",
        "coordinates": [
          -112.60619807631439,
          -27.171211558760014
        ]
      }
    },
    {
      "type": "Feature",
      "properties": {
        "norad_id": 66702,
        "name": "IRIDE FM8",
        "group": "last-30-days",
        "lat": -28.191312898930974,
        "lon": -112.78363981579307,
        "alt_km": 518.0342827561426,
        "timestamp": "2025-12-25T16:53:13.371586+00:00",
        "meta_object_name": "IRIDE FM8",
        "meta_object_id": "2025-276AN",
        "meta_epoch": "2025-12-25T04:53:35.685600",
        "meta_mean_motion": 15.1744139,
        "meta_eccentricity": 0.00024829,
        "meta_inclination": 97.439,
        "meta_ra_of_asc_node": 70.7415,
        "meta_arg_of_pericenter": 244.6677,
        "meta_mean_anomaly": 115.43,
        "meta_ephemeris_type": 0,
        "meta_classification_type": "U",
        "meta_norad_cat_id": 66702,
        "meta_element_set_no": 999,
        "meta_rev_at_epoch": 401,
        "meta_bstar": 0.00069035131,
        "meta_mean_motion_dot": 0.00013763,
        "meta_mean_motion_ddot": 0,
        "tle_line1": "1 66702U 25276AN  25359.20388525  .00013763  00000+0  69035-3 0  9995",
        "tle_line2": "2 66702  97.4390  70.7415 0002482 244.6677 115.4300 15.17441390  4015"
      },
      "geometry": {
        "type": "Point",
        "coordinates": [
          -112.78363981579307,
          -28.191312898930974
        ]
      }
    },
    {
      "type": "Feature",
      "properties": {
        "norad_id": 66703,
        "name": "PELICAN-6",
        "group": "last-30-days",
        "lat": -34.38653164143123,
        "lon": -113.89384568546384,
        "alt_km": 519.4703329606455,
        "timestamp": "2025-12-25T16:53:13.371596+00:00",
        "meta_object_name": "PELICAN-6",
        "meta_object_id": "2025-276AP",
        "meta_epoch": "2025-12-25T08:00:01.000224",
        "meta_mean_motion": 15.17380495,
        "meta_eccentricity": 0.00010389,
        "meta_inclination": 97.4401,
        "meta_ra_of_asc_node": 70.8735,
        "meta_arg_of_pericenter": 220.3523,
        "meta_mean_anomaly": 132.8847,
        "meta_ephemeris_type": 0,
        "meta_classification_type": "U",
        "meta_norad_cat_id": 66703,
        "meta_element_set_no": 999,
        "meta_rev_at_epoch": 517,
        "meta_bstar": -0.0027029825,
        "meta_mean_motion_dot": -0.00053619,
        "meta_mean_motion_ddot": 0,
        "tle_line1": "1 66703U 25276AP  25359.33334491 -.00053619  00000+0 -27030-2 0  9997",
        "tle_line2": "2 66703  97.4401  70.8735 0001038 220.3523 132.8847 15.17380495  5177"
      },
      "geometry": {
        "type": "Point",
        "coordinates": [
          -113.89384568546384,
          -34.38653164143123
        ]
      }
    }
  ]
}